[{"OBJECT_NAME":"TRANSPORTER-10 OBJECT AW","OBJECT_ID":"2024-043AW","EPOCH":"2026-03-09T22:04:49.515456","MEAN_MOTION":15.70494371,"ECCENTRICITY":0.00039773,"INCLINATION":97.534,"RA_OF_ASC_NODE":220.1774,"ARG_OF_PERICENTER":196.6835,"MEAN_ANOMALY":163.4297,"EPHEMERIS_TYPE":0,"CLASSIFICATION_TYPE":"U","NORAD_CAT_ID":59142,"ELEMENT_SET_NO":999,"REV_AT_EPOCH":11287,"BSTAR":0.00092189633,"MEAN_MOTION_DOT":0.00114165,"MEAN_MOTION_DDOT":0},{"OBJECT_NAME":"STARLINK-11150 [DTC]","OBJECT_ID":"2024-141J","EPOCH":"2026-03-09T07:52:58.749600","MEAN_MOTION":15.6970959,"ECCENTRICITY":0.00013871,"INCLINATION":53.1587,"RA_OF_ASC_NODE":88.2272,"ARG_OF_PERICENTER":65.5507,"MEAN_ANOMALY":294.5655,"EPHEMERIS_TYPE":0,"CLASSIFICATION_TYPE":"U","NORAD_CAT_ID":60406,"ELEMENT_SET_NO":999,"REV_AT_EPOCH":9168,"BSTAR":1.6730969e-5,"MEAN_MOTION_DOT":1.438e-5,"MEAN_MOTION_DDOT":0}]
